SPAWAR-CAL-O            
1 43766U 18099J   26068.73975788  .00021069  00000+0  69663-3 0  9999
2 43766  97.4452 132.0993 0007239 285.0670  74.9770 15.31356755398280
STARLINK-34138          
1 63971U 25099V   26068.34322387  .00028264  00000+0  10320-2 0  9994
2 63971  43.0010 174.6815 0004306 288.6513  71.3871 15.27596925 47328
